BEIDOU-2 IGSO-1 (C06)   
1 36828U 10036A   25177.73374523 -.00000092  00000+0  00000+0 0  9993
2 36828  54.2775 166.1749 0049523 218.2738 262.5234  1.00274328 54535
BEIDOU-2 G4 (C04)       
1 37210U 10057A   25178.81563505 -.00000120  00000+0  00000+0 0  9994
2 37210   2.7671  70.4525 0004861 177.2440 122.0949  1.00271024 53737
BEIDOU-2 IGSO-2 (C07)   
1 37256U 10068A   25177.70620784 -.00000207  00000+0  00000+0 0  9992
2 37256  48.1887 276.2337 0047364 213.1178 147.0832  1.00286694 53232
BEIDOU-2 IGSO-3 (C08)   
1 37384U 11013A   25178.58716846 -.00000186  00000+0  00000+0 0  9993
2 37384  61.8999  43.5071 0030856 176.3466  14.9131  1.00263766 52090
BEIDOU-2 IGSO-4 (C09)   
1 37763U 11038A   25178.92274681 -.00000017  00000+0  00000+0 0  9998
2 37763  54.5802 168.8444 0144371 231.3096 303.4487  1.00275703 51090
BEIDOU-2 IGSO-5 (C10)   
1 37948U 11073A   25178.73148670 -.00000205  00000+0  00000+0 0  9998
2 37948  48.3233 275.9250 0108658 220.0199 138.7365  1.00285843 49576
BEIDOU-2 G5 (C05)       
1 38091U 12008A   25178.87197564  .00000049  00000+0  00000+0 0  9993
2 38091   2.6904  71.2556 0007552 265.9445 311.6025  1.00273074 48817
BEIDOU-2 M3 (C11)       
1 38250U 12018A   25178.26072586 -.00000094  00000+0  00000+0 0  9991
2 38250  56.0588 316.8144 0021189 266.9342  92.8100  1.86233605 89339
BEIDOU-2 M4 (C12)       
1 38251U 12018B   25176.58206961 -.00000094  00000+0  00000+0 0  9991
2 38251  55.9635 316.1133 0012041 267.5185  92.3263  1.86231938 89300
BEIDOU-2 M6 (C14)       
1 38775U 12050B   25177.36641061 -.00000054  00000+0  00000+0 0  9995
2 38775  56.2277  74.6884 0013579 350.7474   9.2636  1.86231014 86683
BEIDOU-2 G6 (C02)       
1 38953U 12059A   25178.90974479 -.00000183  00000+0  00000+0 0  9998
2 38953   3.5209  77.2352 0008937 320.1402 290.4197  1.00270174 46356
BEIDOU-3S IGSO-1S (C31) 
1 40549U 15019A   25178.78125861 -.00000194  00000+0  00000+0 0  9992
2 40549  49.8670 299.7259 0040298 192.3484 160.3926  1.00275608 37517
BEIDOU-3S M2S (C58)     
1 40748U 15037A   25177.32239670 -.00000093  00000+0  00000+0 0  9994
2 40748  55.1839 314.2736 0009146 251.1762 108.7106  1.86229135 67492
BEIDOU-3S M1S (C57)     
1 40749U 15037B   25178.64877346 -.00000093  00000+0  00000+0 0  9999
2 40749  55.1795 314.2198 0002959  24.5240 335.4802  1.86253802 67528
BEIDOU-3S IGSO-2S (C56) 
1 40938U 15053A   25178.68845672 -.00000127  00000+0  00000+0 0  9996
2 40938  49.7688 262.9938 0060147 189.1734 167.2070  1.00264779 35791
BEIDOU-2 IGSO-6 (C13)   
1 41434U 16021A   25178.58841054 -.00000162  00000+0  00000+0 0  9992
2 41434  59.7255  41.5740 0053895 228.7145 312.5536  1.00285407 33920
BEIDOU-2 G7 (C03)       
1 41586U 16037A   25178.86686000 -.00000361  00000+0  00000+0 0  9997
2 41586   1.7908  69.0622 0009581   8.9966 260.7180  1.00275201  3338
BEIDOU-3 M1 (C19)       
1 43001U 17069A   25177.13205364 -.00000055  00000+0  00000+0 0  9996
2 43001  56.3766  74.8406 0010141 320.0015  39.9586  1.86231243 51972
BEIDOU-3 M2 (C20)       
1 43002U 17069B   25176.53310197 -.00000057  00000+0  00000+0 0  9993
2 43002  56.3750  74.8970 0008762 345.5469  14.4597  1.86230797 51954
BEIDOU-3 M7 (C27)       
1 43107U 18003A   25177.88924562 -.00000094  00000+0  00000+0 0  9995
2 43107  54.6418 314.6801 0004431  88.8259 271.2126  1.86232574 50734
BEIDOU-3 M8 (C28)       
1 43108U 18003B   25178.90667195 -.00000095  00000+0  00000+0 0  9997
2 43108  54.6340 314.6285 0002962 253.0332 106.9254  1.86230974 50761
BEIDOU-3 M4 (C22)       
1 43207U 18018A   25176.12633515 -.00000059  00000+0  00000+0 0  9994
2 43207  56.3345  74.9503 0007364  13.5566 346.4925  1.86231102 50099
BEIDOU-3 M3 (C21)       
1 43208U 18018B   25177.26680477 -.00000054  00000+0  00000+0 0  9995
2 43208  56.3350  74.9165 0008345 335.5285  24.4671  1.86231046 50116
BEIDOU-3 M9 (C29)       
1 43245U 18029A   25178.55821330 -.00000092  00000+0  00000+0 0  9998
2 43245  54.5135 312.3268 0000926 175.0051 184.9876  1.86232682 49299
BEIDOU-3 M10 (C30)      
1 43246U 18029B   25177.41717173 -.00000092  00000+0  00000+0 0  9992
2 43246  54.5123 312.3944 0003372  29.2062 330.8005  1.86229140 49255
BEIDOU-2 IGSO-7 (C16)   
1 43539U 18057A   25178.91722361 -.00000096  00000+0  00000+0 0  9993
2 43539  55.1678 166.1239 0089788 236.6907 314.6327  1.00253652 25578
BEIDOU-3 M5 (C23)       
1 43581U 18062A   25176.56840170  .00000068  00000+0  00000+0 0  9992
2 43581  54.1004 194.4281 0005649 281.4140  78.5685  1.86228662 46998
BEIDOU-3 M6 (C24)       
1 43582U 18062B   25178.58022214  .00000044  00000+0  00000+0 0  9992
2 43582  54.0999 194.3487 0004591   1.0651 358.9677  1.86229645 47030
BEIDOU-3 M12 (C26)      
1 43602U 18067A   25177.44224485  .00000055  00000+0  00000+0 0  9990
2 43602  54.1933 193.1031 0007196  23.6136 336.4560  1.86227787 46492
BEIDOU-3 M11 (C25)      
1 43603U 18067B   25178.65022700  .00000044  00000+0  00000+0 0  9999
2 43603  54.1906 193.0266 0004098   5.6941 354.3393  1.86227297 46549
BEIDOU-3 M13 (C32)      
1 43622U 18072A   25177.53481167 -.00000054  00000+0  00000+0 0  9990
2 43622  56.3082  74.4244 0006764 322.9779  37.0126  1.86231355 46036
BEIDOU-3 M14 (C33)      
1 43623U 18072B   25177.40028718 -.00000054  00000+0  00000+0 0  9996
2 43623  56.3098  74.4226 0005654 355.2443   4.7868  1.86231408 46020
BEIDOU-3 M16 (C35)      
1 43647U 18078A   25178.63387713 -.00000092  00000+0  00000+0 0  9999
2 43647  54.4099 312.3922 0006755  32.2769 327.7562  1.86232250 45551
BEIDOU-3 M15 (C34)      
1 43648U 18078B   25178.22615767 -.00000092  00000+0  00000+0 0  9998
2 43648  54.4060 312.4078 0003792  49.6645 310.3592  1.86232332 45569
BEIDOU-3 G1 (C59)       
1 43683U 18085A   25178.88299862 -.00000285  00000+0  00000+0 0  9995
2 43683   2.6951 108.0547 0004125 353.6871 272.4049  1.00270105 24504
BEIDOU-3 M17 (C36)      
1 43706U 18093A   25178.38182366  .00000045  00000+0  00000+0 0  9998
2 43706  54.1836 194.3322 0010315 285.5956  74.3235  1.86228441 44944
BEIDOU-3 M18 (C37)      
1 43707U 18093B   25176.63331014  .00000067  00000+0  00000+0 0  9995
2 43707  54.1845 194.3835 0008109 311.2777  48.6979  1.86229866 44895
BEIDOU-3 IGSO-1 (C38)   
1 44204U 19023A   25178.83826882 -.00000221  00000+0  00000+0 0  9991
2 44204  58.1920  41.3070 0023353 217.4613  76.3222  1.00294223  3655
BEIDOU-2 G8 (C01)       
1 44231U 19027A   25178.88386742 -.00000255  00000+0  00000+0 0  9993
2 44231   1.7186  75.1739 0003984 253.0574  50.6876  1.00270856 22523
BEIDOU-3 IGSO-2 (C39)   
1 44337U 19035A   25177.84738866 -.00000107  00000+0  00000+0 0  9998
2 44337  55.2131 161.9827 0035711 211.0356 327.0686  1.00267967 22104
BEIDOU-3 M24 (C46)      
1 44542U 19061A   25178.85213848  .00000043  00000+0  00000+0 0  9993
2 44542  54.4113 194.6774 0008062 349.5513  10.4633  1.86229218 39191
BEIDOU-3 M23 (C45)      
1 44543U 19061B   25178.45095985  .00000045  00000+0  00000+0 0  9992
2 44543  54.4098 194.6592 0005609 328.3885  35.4047  1.86229397 39197
BEIDOU-3 IGSO-3 (C40)   
1 44709U 19073A   25177.70256260 -.00000206  00000+0  00000+0 0  9991
2 44709  55.4094 284.7373 0044672 188.5697 171.3751  1.00296066 20898
BEIDOU-3 M22 (C44)      
1 44793U 19078A   25178.15727650 -.00000092  00000+0  00000+0 0  9998
2 44793  54.2574 312.2948 0005753  41.6102 318.4240  1.86232203 38043
BEIDOU-3 M21 (C43)      
1 44794U 19078B   25178.29101444 -.00000092  00000+0  00000+0 0  9991
2 44794  54.2310 312.2583 0003739  40.1763 319.8424  1.86227776 38044
BEIDOU-3 M19 (C41)      
1 44864U 19090A   25176.63818781 -.00000057  00000+0  00000+0 0  9999
2 44864  56.2418  74.6044 0017447 292.5007 233.4818  1.86231503 37599
BEIDOU-3 M20 (C42)      
1 44865U 19090B   25178.84286836 -.00000052  00000+0  00000+0 0  9990
2 44865  56.2454  74.5650 0015308 306.6867 347.0686  1.86231517 37610
BEIDOU-3 G2 (C60)       
1 45344U 20017A   25178.90607269 -.00000149  00000+0  00000+0 0  9995
2 45344   2.8914  40.7042 0001632  44.3494 237.4016  1.00271900 19703
BEIDOU-3 G3 (C61)       
1 45807U 20040A   25178.86685994 -.00000360  00000+0  00000+0 0  9996
2 45807   1.5870  64.3308 0004497 353.2981 281.0701  1.00264955 18512
BEIDOU-3 G4 (C62)       
1 56564U 23066A   25178.81554817 -.00000117  00000+0  00000+0 0  9993
2 56564   1.1980 292.9597 0006399 188.5412 248.2848  1.00270938  7841
BEIDOU-3 M28 (C50)      
1 58654U 23207A   25177.29675152 -.00000056  00000+0  00000+0 0  9991
2 58654  55.4309  74.3393 0002837 337.9768  22.0461  1.86229889 10210
BEIDOU-3 M26 (C48)      
1 58655U 23207B   25176.02196135 -.00000062  00000+0  00000+0 0  9998
2 58655  55.4319  74.3686 0002806 305.2296  54.7729  1.86231593 10176
BEIDOU-3 M25 (C47)      
1 61186U 24168B   25177.18725347 -.00000094  00000+0  00000+0 0  9994
2 61186  54.7875 314.5890 0003323 288.0959 250.8409  1.86229939  5150
BEIDOU-3 M27 (C49)      
1 61187U 24168C   25178.83220641 -.00000094  00000+0  00000+0 0  9995
2 61187  54.7816 314.5163 0001191  38.8118 297.8675  1.86230102  2650
